{
    "links": {
        "self": "http://www.neowsapp.com/rest/v1/neo/3618065?api_key=iIulBulltgU6a56xZRHN4H3l9WmuAYTsLGpBGhQ2"
    },
    "id": "3618065",
    "neo_reference_id": "3618065",
    "name": "(2012 WG)",
    "designation": "2012 WG",
    "nasa_jpl_url": "http://ssd.jpl.nasa.gov/sbdb.cgi?sstr=3618065",
    "absolute_magnitude_h": 25.2,
    "estimated_diameter": {
        "kilometers": {
            "estimated_diameter_min": 0.0242412481,
            "estimated_diameter_max": 0.0542050786
        },
        "meters": {
            "estimated_diameter_min": 24.2412481101,
            "estimated_diameter_max": 54.2050786336
        },
        "miles": {
            "estimated_diameter_min": 0.0150628086,
            "estimated_diameter_max": 0.0336814639
        },
        "feet": {
            "estimated_diameter_min": 79.5316564495,
            "estimated_diameter_max": 177.8381901842
        }
    },
    "is_potentially_hazardous_asteroid": false,
    "close_approach_data": [
        {
            "close_approach_date": "2012-07-09",
            "close_approach_date_full": "2012-Jul-09 13:10",
            "epoch_date_close_approach": 1341839400000,
            "relative_velocity": {
                "kilometers_per_second": "6.9159949962",
                "kilometers_per_hour": "24897.5819861953",
                "miles_per_hour": "15470.3892069223"
            },
            "miss_distance": {
                "astronomical": "0.4563219649",
                "lunar": "177.5092443461",
                "kilometers": "68264793.983254763",
                "miles": "42417776.0427832094"
            },
            "orbiting_body": "Earth"
        },
        {
            "close_approach_date": "2012-11-10",
            "close_approach_date_full": "2012-Nov-10 10:05",
            "epoch_date_close_approach": 1352541900000,
            "relative_velocity": {
                "kilometers_per_second": "12.695985916",
                "kilometers_per_hour": "45705.5492977379",
                "miles_per_hour": "28399.6508955861"
            },
            "miss_distance": {
                "astronomical": "0.0544285695",
                "lunar": "21.1727135355",
                "kilometers": "8142398.064346965",
                "miles": "5059451.547299517"
            },
            "orbiting_body": "Earth"
        }
    ],
    "orbital_data": {
        "orbit_id": "6",
        "orbit_determination_date": "2017-04-06 08:47:56",
        "first_observation_date": "2012-11-17",
        "last_observation_date": "2012-11-24",
        "data_arc_in_days": 7,
        "observations_used": 25,
        "orbit_uncertainty": "8",
        "minimum_orbit_intersection": ".0543966",
        "jupiter_tisserand_invariant": "4.121",
        "epoch_osculation": "2456250.5",
        "eccentricity": ".4332386766878801",
        "semi_major_axis": "1.654329056003832",
        "inclination": "16.36103262674106",
        "ascending_node_longitude": "55.44331000375081",
        "orbital_period": "777.1972822468529",
        "perihelion_distance": ".9376097249744222",
        "perihelion_argument": "307.189014347855",
        "aphelion_distance": "2.371048387033243",
        "perihelion_time": "2456204.693353262859",
        "mean_anomaly": "21.2177695445583",
        "mean_motion": ".4632028549549882",
        "equinox": "J2000",
        "orbit_class": {
            "orbit_class_type": "APO",
            "orbit_class_description": "Near-Earth asteroid orbits which cross the Earth’s orbit similar to that of 1862 Apollo",
            "orbit_class_range": "a (semi-major axis) > 1.0 AU; q (perihelion) < 1.017 AU"
        }
    },
    "is_sentry_object": false
}